STARLINK-36536          
1 69510U 26133C   26181.50291600  .00210207  00000+0  10393-2 0  9996
2 69510  53.1587 255.3179 0000984  73.4412 286.6719 15.80947199  2886
STARLINK-37420          
1 69511U 26133D   26181.56269452  .00188366  00000+0  93499-3 0  9992
2 69511  53.1586 254.9765 0001513  70.6671 289.4515 15.80924531  4159
STARLINK-37511          
1 69512U 26133E   26181.56401412  .00190270  00000+0  94363-3 0  9995
2 69512  53.1584 254.9857 0001104 104.0849 256.0297 15.80937712  2896
STARLINK-37552          
1 69513U 26133F   26181.50002315 -.02436557  00000+0 -24173-1 0  9994
2 69513  53.1591 255.3758 0000917  85.6344 236.5448 15.68433588  4009
STARLINK-37607          
1 69514U 26133G   26181.55884472  .00121357  00000+0  60880-3 0  9994
2 69514  53.1587 254.9502 0001233  76.0780 284.0380 15.80908151  4142
STARLINK-37232          
1 69515U 26133H   26181.00002315 -.02376743  00000+0 -17282-1 0  9994
2 69515  53.1592 257.7207 0001057  58.8435  13.3196 15.76151123  3928
STARLINK-37323          
1 69516U 26133J   26181.55441466  .00166396  00000+0  82836-3 0  9995
2 69516  53.1587 254.9198 0001111  82.7641 277.3508 15.80927279  4149
STARLINK-37357          
1 69517U 26133K   26181.50002315 -.02432436  00000+0 -26126-1 0  9990
2 69517  53.1591 255.3163 0000812  72.1478 277.9542 15.66500236  4003
STARLINK-37408          
1 69518U 26133L   26181.55088740  .00172963  00000+0  86073-3 0  9993
2 69518  53.1583 254.8956 0000896 102.3166 257.7958 15.80915282  4151
STARLINK-37570          
1 69519U 26133M   26181.50002315 -.02425694  00000+0 -22153-1 0  9996
2 69519  53.1593 255.1747 0001188  47.6957  10.8568 15.70393563  4009
STARLINK-37510          
1 69520U 26133N   26181.50002315 -.02339944  00000+0 -20151-1 0  9996
2 69520  53.1593 255.1830 0001191  51.2711   3.7268 15.72229191  4002
STARLINK-37586          
1 69521U 26133P   26181.50002315 -.00026867  00000+0 -13293-3 0  9993
2 69521  53.1578 255.0126 0001259  88.9824  48.5004 15.80884152  4008
STARLINK-37379          
1 69522U 26133Q   26181.09756914 -.00860394  00000+0 -50354-2 0  9998
2 69522  53.1585 257.0395 0002852   2.4012 357.7024 15.79860095  4080
STARLINK-37429          
1 69523U 26133R   26181.50002315 -.02353974  00000+0 -24729-1 0  9993
2 69523  53.1594 255.1483 0001104  49.2177  21.7555 15.66926310  4051
STARLINK-37352          
1 69524U 26133S   26181.00002315 -.02437677  00000+0 -15573-1 0  9999
2 69524  53.1590 257.4764 0001189  69.4974 119.7146 15.79102120  3970
STARLINK-37490          
1 69525U 26133T   26181.50002315 -.01258391  00000+0 -70705-2 0  9997
2 69525  53.1585 254.8735 0001351 110.0734  93.8740 15.81298615  4052
STARLINK-37438          
1 69526U 26133U   26181.50002315 -.02460853  00000+0 -20895-1 0  9991
2 69526  53.1589 254.9990 0001300  66.9271  76.4298 15.72151693  4059
STARLINK-37484          
1 69527U 26133V   26181.50002315 -.00226090  00000+0 -11654-2 0  9997
2 69527  53.1585 254.8579 0001166  72.6796 138.8980 15.80995867  4053
STARLINK-37523          
1 69528U 26133W   26181.40191039 -.01057944  00000+0 -76922-2 0  9999
2 69528  53.1591 255.3749 0001463 157.5785 202.5299 15.75159302  4138
STARLINK-37369          
1 69529U 26133X   26181.46330625 -.00910569  00000+0 -66768-2 0  9999
2 69529  53.1591 255.0443 0000527 351.7532   8.3480 15.75007066  4149
STARLINK-37670          
1 69530U 26133Y   26181.50002315 -.02512979  00000+0 -23379-1 0  9993
2 69530  53.1596 254.8729 0001278  74.9048 128.5427 15.70074477  4051
STARLINK-37897          
1 69531U 26133Z   26181.50002315 -.00057937  00000+0 -29162-3 0  9998
2 69531  53.1585 254.7545 0001114  79.4222 181.6324 15.80898482  4000
STARLINK-37933          
1 69532U 26133AA  26181.50002315 -.02405604  00000+0 -17914-1 0  9999
2 69532  53.1590 254.7256 0000872  62.2691 212.1965 15.75665377  4006
STARLINK-37890          
1 69533U 26133AB  26181.50002315 -.02404418  00000+0 -16379-1 0  9996
2 69533  53.1586 254.6615 0000962  70.2185 235.3576 15.77646935  4003
STARLINK-37407          
1 69534U 26133AC  26181.50002315 -.02533828  00000+0 -16007-1 0  9993
2 69534  53.1583 254.6119 0000897  75.6542 253.2907 15.79500184  4052
STARLINK-37888          
1 69535U 26133AD  26181.50002315 -.02510484  00000+0 -16665-1 0  9997
2 69535  53.1586 254.5417 0000685  91.1702 271.5179 15.78386909  4018
STARLINK-37889          
1 69536U 26133AE  26181.50002315 -.02458804  00000+0 -23945-1 0  9994
2 69536  53.1594 255.1654 0001278  49.5951  14.5528 15.68907637  4008
2026-134A               
1 69538U 26134A   26181.24942041  .00005324  00000+0  33700-3 0  9990
2 69538  97.7013 251.4029 0014737 222.3282 137.6811 15.09331428  2281
2026-134B               
1 69539U 26134B   26181.24785659  .00004418  00000+0  27921-3 0  9992
2 69539  97.6987 251.4007 0014840 224.8674 135.1356 15.09485765  2274
