OBJECT_NAME,OBJECT_ID,EPOCH,MEAN_MOTION,ECCENTRICITY,INCLINATION,RA_OF_ASC_NODE,ARG_OF_PERICENTER,MEAN_ANOMALY,EPHEMERIS_TYPE,CLASSIFICATION_TYPE,NORAD_CAT_ID,ELEMENT_SET_NO,REV_AT_EPOCH,BSTAR,MEAN_MOTION_DOT,MEAN_MOTION_DDOT
STARLINK-36536,2026-133C,2026-06-30T12:04:11.942400,15.80947199,.00009846,53.1587,255.3179,73.4412,286.6719,0,U,69510,999,288,.10392694E-2,.210207E-2,0
STARLINK-37420,2026-133D,2026-06-30T13:30:16.806528,15.80924531,.00015138,53.1586,254.9765,70.6671,289.4515,0,U,69511,999,415,.93499304E-3,.188366E-2,0
STARLINK-37511,2026-133E,2026-06-30T13:32:10.819968,15.80937712,.00011044,53.1584,254.9857,104.0849,256.0297,0,U,69512,999,289,.94363428E-3,.19027E-2,0
STARLINK-37552,2026-133F,2026-06-30T12:00:02.000160,15.68433588,.00009179,53.1591,255.3758,85.6344,236.5448,0,U,69513,999,400,-.24173306E-1,-.2436557E-1,0
STARLINK-37607,2026-133G,2026-06-30T13:24:44.183808,15.80908151,.00012334,53.1587,254.9502,76.0780,284.0380,0,U,69514,999,414,.60879755E-3,.121357E-2,0
STARLINK-37232,2026-133H,2026-06-30T00:00:02.000160,15.76151123,.00010577,53.1592,257.7207,58.8435,13.3196,0,U,69515,999,392,-.1728196E-1,-.2376743E-1,0
STARLINK-37323,2026-133J,2026-06-30T13:18:21.426624,15.80927279,.00011116,53.1587,254.9198,82.7641,277.3508,0,U,69516,999,414,.82836169E-3,.166396E-2,0
STARLINK-37357,2026-133K,2026-06-30T12:00:02.000160,15.66500236,.0000812,53.1591,255.3163,72.1478,277.9542,0,U,69517,999,400,-.26126098E-1,-.2432436E-1,0
STARLINK-37408,2026-133L,2026-06-30T13:13:16.671360,15.80915282,.00008963,53.1583,254.8956,102.3166,257.7958,0,U,69518,999,415,.86073283E-3,.172963E-2,0
STARLINK-37570,2026-133M,2026-06-30T12:00:02.000160,15.70393563,.00011886,53.1593,255.1747,47.6957,10.8568,0,U,69519,999,400,-.2215267E-1,-.2425694E-1,0
STARLINK-37510,2026-133N,2026-06-30T12:00:02.000160,15.72229191,.0001191,53.1593,255.1830,51.2711,3.7268,0,U,69520,999,400,-.20151391E-1,-.2339944E-1,0
STARLINK-37586,2026-133P,2026-06-30T12:00:02.000160,15.80884152,.00012593,53.1578,255.0126,88.9824,48.5004,0,U,69521,999,400,-.13292869E-3,-.26867E-3,0
STARLINK-37379,2026-133Q,2026-06-30T02:20:29.973696,15.79860095,.00028521,53.1585,257.0395,2.4012,357.7024,0,U,69522,999,408,-.50353554E-2,-.860394E-2,0
STARLINK-37429,2026-133R,2026-06-30T12:00:02.000160,15.66926310,.00011048,53.1594,255.1483,49.2177,21.7555,0,U,69523,999,405,-.24728945E-1,-.2353974E-1,0
STARLINK-37352,2026-133S,2026-06-30T00:00:02.000160,15.79102120,.00011896,53.1590,257.4764,69.4974,119.7146,0,U,69524,999,397,-.15572842E-1,-.2437677E-1,0
STARLINK-37490,2026-133T,2026-06-30T12:00:02.000160,15.81298615,.00013511,53.1585,254.8735,110.0734,93.8740,0,U,69525,999,405,-.70705466E-2,-.1258391E-1,0
STARLINK-37438,2026-133U,2026-06-30T12:00:02.000160,15.72151693,.00013004,53.1589,254.9990,66.9271,76.4298,0,U,69526,999,405,-.20894502E-1,-.2460853E-1,0
STARLINK-37484,2026-133V,2026-06-30T12:00:02.000160,15.80995867,.00011669,53.1585,254.8579,72.6796,138.8980,0,U,69527,999,405,-.11654403E-2,-.22609E-2,0
STARLINK-37523,2026-133W,2026-06-30T09:38:45.057696,15.75159302,.00014635,53.1591,255.3749,157.5785,202.5299,0,U,69528,999,413,-.76921681E-2,-.1057944E-1,0
STARLINK-37369,2026-133X,2026-06-30T11:07:09.660000,15.75007066,.00005276,53.1591,255.0443,351.7532,8.3480,0,U,69529,999,414,-.66768352E-2,-.910569E-2,0
STARLINK-37670,2026-133Y,2026-06-30T12:00:02.000160,15.70074477,.00012788,53.1596,254.8729,74.9048,128.5427,0,U,69530,999,405,-.2337937E-1,-.2512979E-1,0
STARLINK-37897,2026-133Z,2026-06-30T12:00:02.000160,15.80898482,.0001114,53.1585,254.7545,79.4222,181.6324,0,U,69531,999,400,-.29161572E-3,-.57937E-3,0
STARLINK-37933,2026-133AA,2026-06-30T12:00:02.000160,15.75665377,.0000872,53.1590,254.7256,62.2691,212.1965,0,U,69532,999,400,-.17913723E-1,-.2405604E-1,0
STARLINK-37890,2026-133AB,2026-06-30T12:00:02.000160,15.77646935,.00009626,53.1586,254.6615,70.2185,235.3576,0,U,69533,999,400,-.16378706E-1,-.2404418E-1,0
STARLINK-37407,2026-133AC,2026-06-30T12:00:02.000160,15.79500184,.00008975,53.1583,254.6119,75.6542,253.2907,0,U,69534,999,405,-.16006864E-1,-.2533828E-1,0
STARLINK-37888,2026-133AD,2026-06-30T12:00:02.000160,15.78386909,.00006854,53.1586,254.5417,91.1702,271.5179,0,U,69535,999,401,-.16665453E-1,-.2510484E-1,0
STARLINK-37889,2026-133AE,2026-06-30T12:00:02.000160,15.68907637,.00012789,53.1594,255.1654,49.5951,14.5528,0,U,69536,999,400,-.23945103E-1,-.2458804E-1,0
2026-134A,2026-134A,2026-06-30T05:59:09.923424,15.09331428,.0014737,97.7013,251.4029,222.3282,137.6811,0,U,69538,999,228,.33699732E-3,.5324E-4,0
2026-134B,2026-134B,2026-06-30T05:56:54.809376,15.09485765,.00148409,97.6987,251.4007,224.8674,135.1356,0,U,69539,999,227,.27920752E-3,.4418E-4,0
